[{"OBJECT_NAME":"TIANHUI 5C","OBJECT_ID":"2024-126A","EPOCH":"2026-03-09T13:08:56.446656","MEAN_MOTION":14.87585548,"ECCENTRICITY":0.0001564,"INCLINATION":97.8217,"RA_OF_ASC_NODE":77.5195,"ARG_OF_PERICENTER":89.5456,"MEAN_ANOMALY":270.594,"EPHEMERIS_TYPE":0,"CLASSIFICATION_TYPE":"U","NORAD_CAT_ID":60211,"ELEMENT_SET_NO":999,"REV_AT_EPOCH":9107,"BSTAR":7.97e-5,"MEAN_MOTION_DOT":6.7e-6,"MEAN_MOTION_DDOT":0},{"OBJECT_NAME":"TIANHUI 5D","OBJECT_ID":"2024-126B","EPOCH":"2026-03-09T13:08:56.533920","MEAN_MOTION":14.87585442,"ECCENTRICITY":0.0002106,"INCLINATION":97.8217,"RA_OF_ASC_NODE":77.5266,"ARG_OF_PERICENTER":94.6476,"MEAN_ANOMALY":265.4981,"EPHEMERIS_TYPE":0,"CLASSIFICATION_TYPE":"U","NORAD_CAT_ID":60212,"ELEMENT_SET_NO":999,"REV_AT_EPOCH":9108,"BSTAR":7.9344e-5,"MEAN_MOTION_DOT":6.67e-6,"MEAN_MOTION_DDOT":0}]
