TIANHUI 5C              
1 60211U 24126A   26068.54787554  .00000670  00000+0  79700-4 0  9991
2 60211  97.8217  77.5195 0001564  89.5456 270.5940 14.87585548 91072
TIANHUI 5D              
1 60212U 24126B   26068.54787655  .00000667  00000+0  79344-4 0  9994
2 60212  97.8217  77.5266 0002106  94.6476 265.4981 14.87585442 91086
